{
  "links" : {
    "next" : "https://api.nasa.gov/neo/rest/v1/feed?start_date=2009-10-16&end_date=2009-10-16&detailed=true&api_key=t0TVs3DtDT2H8Oy2Zy8m2eVrNsAVKAexjcZXUckd",
    "prev" : "https://api.nasa.gov/neo/rest/v1/feed?start_date=2009-10-14&end_date=2009-10-14&detailed=true&api_key=t0TVs3DtDT2H8Oy2Zy8m2eVrNsAVKAexjcZXUckd",
    "self" : "https://api.nasa.gov/neo/rest/v1/feed?start_date=2009-10-15&end_date=2009-10-15&detailed=true&api_key=t0TVs3DtDT2H8Oy2Zy8m2eVrNsAVKAexjcZXUckd"
  },
  "element_count" : 15,
  "near_earth_objects" : {
    "2009-10-15" : [ {
      "links" : {
        "self" : "https://api.nasa.gov/neo/rest/v1/neo/3611402?api_key=t0TVs3DtDT2H8Oy2Zy8m2eVrNsAVKAexjcZXUckd"
      },
      "neo_reference_id" : "3611402",
      "name" : "(2012 TR231)",
      "nasa_jpl_url" : "http://ssd.jpl.nasa.gov/sbdb.cgi?sstr=3611402",
      "absolute_magnitude_h" : 23.9,
      "estimated_diameter" : {
        "kilometers" : {
          "estimated_diameter_min" : 0.04411182,
          "estimated_diameter_max" : 0.0986370281
        },
        "meters" : {
          "estimated_diameter_min" : 44.1118199997,
          "estimated_diameter_max" : 98.6370281305
        },
        "miles" : {
          "estimated_diameter_min" : 0.0274098057,
          "estimated_diameter_max" : 0.0612901888
        },
        "feet" : {
          "estimated_diameter_min" : 144.7238235278,
          "estimated_diameter_max" : 323.6123073718
        }
      },
      "is_potentially_hazardous_asteroid" : false,
      "close_approach_data" : [ {
        "close_approach_date" : "2009-10-15",
        "epoch_date_close_approach" : 1255590000000,
        "relative_velocity" : {
          "kilometers_per_second" : "21.2052459556",
          "kilometers_per_hour" : "76338.8854403249",
          "miles_per_hour" : "47434.0146781841"
        },
        "miss_distance" : {
          "astronomical" : "0.3455735965",
          "lunar" : "134.4281311035",
          "kilometers" : "51697076",
          "miles" : "32123074"
        },
        "orbiting_body" : "Earth"
      } ],
      "orbital_data" : {
        "orbit_id" : "6",
        "orbit_determination_date" : "2017-04-06 08:48:33",
        "orbit_uncertainty" : "7",
        "minimum_orbit_intersection" : ".0740514",
        "jupiter_tisserand_invariant" : "6.844",
        "epoch_osculation" : "2458000.5",
        "eccentricity" : ".2909720815878697",
        "semi_major_axis" : ".8388481010367324",
        "inclination" : "33.43650172310035",
        "ascending_node_longitude" : "199.9166819906641",
        "orbital_period" : "280.6230984176455",
        "perihelion_distance" : ".5947667229420427",
        "perihelion_argument" : "347.364274778467",
        "aphelion_distance" : "1.082929479131422",
        "perihelion_time" : "2458021.731095257774",
        "mean_anomaly" : "332.7634883375727",
        "mean_motion" : "1.282859472473715",
        "equinox" : "J2000"
      }
    }, {
      "links" : {
        "self" : "https://api.nasa.gov/neo/rest/v1/neo/3617713?api_key=t0TVs3DtDT2H8Oy2Zy8m2eVrNsAVKAexjcZXUckd"
      },
      "neo_reference_id" : "3617713",
      "name" : "(2012 VS76)",
      "nasa_jpl_url" : "http://ssd.jpl.nasa.gov/sbdb.cgi?sstr=3617713",
      "absolute_magnitude_h" : 26.9,
      "estimated_diameter" : {
        "kilometers" : {
          "estimated_diameter_min" : 0.0110803882,
          "estimated_diameter_max" : 0.0247765013
        },
        "meters" : {
          "estimated_diameter_min" : 11.0803882126,
          "estimated_diameter_max" : 24.7765012606
        },
        "miles" : {
          "estimated_diameter_min" : 0.0068850319,
          "estimated_diameter_max" : 0.0153953994
        },
        "feet" : {
          "estimated_diameter_min" : 36.3529808636,
          "estimated_diameter_max" : 81.2877363957
        }
      },
      "is_potentially_hazardous_asteroid" : false,
      "close_approach_data" : [ {
        "close_approach_date" : "2009-10-15",
        "epoch_date_close_approach" : 1255590000000,
        "relative_velocity" : {
          "kilometers_per_second" : "8.6501447359",
          "kilometers_per_hour" : "31140.5210493859",
          "miles_per_hour" : "19349.5087598254"
        },
        "miss_distance" : {
          "astronomical" : "0.2916265008",
          "lunar" : "113.4427108765",
          "kilometers" : "43626704",
          "miles" : "27108378"
        },
        "orbiting_body" : "Earth"
      } ],
      "orbital_data" : {
        "orbit_id" : "7",
        "orbit_determination_date" : "2017-04-06 08:48:00",
        "orbit_uncertainty" : "6",
        "minimum_orbit_intersection" : ".00190346",
        "jupiter_tisserand_invariant" : "6.055",
        "epoch_osculation" : "2458000.5",
        "eccentricity" : ".3862441671716078",
        "semi_major_axis" : ".991089878325892",
        "inclination" : ".8057978515425388",
        "ascending_node_longitude" : "242.3344398777288",
        "orbital_period" : "360.3860636105049",
        "perihelion_distance" : ".6082871936796979",
        "perihelion_argument" : "284.4250658581834",
        "aphelion_distance" : "1.373892562972086",
        "perihelion_time" : "2458118.235928402428",
        "mean_anomaly" : "242.3901962238961",
        "mean_motion" : ".9989287498893903",
        "equinox" : "J2000"
      }
    }, {
      "links" : {
        "self" : "https://api.nasa.gov/neo/rest/v1/neo/3468527?api_key=t0TVs3DtDT2H8Oy2Zy8m2eVrNsAVKAexjcZXUckd"
      },
      "neo_reference_id" : "3468527",
      "name" : "(2009 SM104)",
      "nasa_jpl_url" : "http://ssd.jpl.nasa.gov/sbdb.cgi?sstr=3468527",
      "absolute_magnitude_h" : 23.6,
      "estimated_diameter" : {
        "kilometers" : {
          "estimated_diameter_min" : 0.0506471459,
          "estimated_diameter_max" : 0.1132504611
        },
        "meters" : {
          "estimated_diameter_min" : 50.6471458835,
          "estimated_diameter_max" : 113.2504610618
        },
        "miles" : {
          "estimated_diameter_min" : 0.0314706677,
          "estimated_diameter_max" : 0.0703705522
        },
        "feet" : {
          "estimated_diameter_min" : 166.1651821003,
          "estimated_diameter_max" : 371.5566426699
        }
      },
      "is_potentially_hazardous_asteroid" : false,
      "close_approach_data" : [ {
        "close_approach_date" : "2009-10-15",
        "epoch_date_close_approach" : 1255590000000,
        "relative_velocity" : {
          "kilometers_per_second" : "9.9403819675",
          "kilometers_per_hour" : "35785.375083172",
          "miles_per_hour" : "22235.6404232077"
        },
        "miss_distance" : {
          "astronomical" : "0.08962569",
          "lunar" : "34.8643913269",
          "kilometers" : "13407812",
          "miles" : "8331228"
        },
        "orbiting_body" : "Earth"
      } ],
      "orbital_data" : {
        "orbit_id" : "12",
        "orbit_determination_date" : "2017-04-06 08:59:48",
        "orbit_uncertainty" : "7",
        "minimum_orbit_intersection" : ".0672121",
        "jupiter_tisserand_invariant" : "6.098",
        "epoch_osculation" : "2458000.5",
        "eccentricity" : ".3675326427022826",
        "semi_major_axis" : ".981450655761091",
        "inclination" : "9.676830169742416",
        "ascending_node_longitude" : ".8317866310987827",
        "orbital_period" : "355.141259983995",
        "perihelion_distance" : ".620735502567329",
        "perihelion_argument" : "138.9835264813726",
        "aphelion_distance" : "1.342165808954853",
        "perihelion_time" : "2458039.068982143123",
        "mean_anomaly" : "320.9033499172974",
        "mean_motion" : "1.013681147654384",
        "equinox" : "J2000"
      }
    } ]
  }
}